[{"OBJECT_NAME":"SL-8 R/B","OBJECT_ID":"1991-006B","EPOCH":"2026-04-13T01:06:23.770080","MEAN_MOTION":13.77500637,"ECCENTRICITY":0.00210846,"INCLINATION":82.9417,"RA_OF_ASC_NODE":144.4993,"ARG_OF_PERICENTER":300.7793,"MEAN_ANOMALY":81.1218,"EPHEMERIS_TYPE":0,"CLASSIFICATION_TYPE":"U","NORAD_CAT_ID":21088,"ELEMENT_SET_NO":999,"REV_AT_EPOCH":76880,"BSTAR":0.00010351257,"MEAN_MOTION_DOT":1.18e-6,"MEAN_MOTION_DDOT":0},{"OBJECT_NAME":"OKEAN-3","OBJECT_ID":"1991-039A","EPOCH":"2026-04-12T23:43:11.460576","MEAN_MOTION":15.05008495,"ECCENTRICITY":0.00136284,"INCLINATION":82.5146,"RA_OF_ASC_NODE":303.6037,"ARG_OF_PERICENTER":209.0368,"MEAN_ANOMALY":151.0102,"EPHEMERIS_TYPE":0,"CLASSIFICATION_TYPE":"U","NORAD_CAT_ID":21397,"ELEMENT_SET_NO":999,"REV_AT_EPOCH":87019,"BSTAR":9.9413783e-5,"MEAN_MOTION_DOT":1.441e-5,"MEAN_MOTION_DDOT":0},{"OBJECT_NAME":"COSMOS 2151","OBJECT_ID":"1991-042A","EPOCH":"2026-04-13T05:37:04.512864","MEAN_MOTION":15.0026144,"ECCENTRICITY":0.00109731,"INCLINATION":82.4972,"RA_OF_ASC_NODE":50.3462,"ARG_OF_PERICENTER":308.4663,"MEAN_ANOMALY":51.5576,"EPHEMERIS_TYPE":0,"CLASSIFICATION_TYPE":"U","NORAD_CAT_ID":21422,"ELEMENT_SET_NO":999,"REV_AT_EPOCH":86837,"BSTAR":9.0996909e-5,"MEAN_MOTION_DOT":1.167e-5,"MEAN_MOTION_DDOT":0},{"OBJECT_NAME":"SL-14 R/B","OBJECT_ID":"1991-042B","EPOCH":"2026-04-13T04:41:32.301600","MEAN_MOTION":14.81864185,"ECCENTRICITY":0.00183274,"INCLINATION":82.4958,"RA_OF_ASC_NODE":187.8356,"ARG_OF_PERICENTER":125.1154,"MEAN_ANOMALY":235.1782,"EPHEMERIS_TYPE":0,"CLASSIFICATION_TYPE":"U","NORAD_CAT_ID":21423,"ELEMENT_SET_NO":999,"REV_AT_EPOCH":85818,"BSTAR":2.8475188e-5,"MEAN_MOTION_DOT":2.49e-6,"MEAN_MOTION_DDOT":0},{"OBJECT_NAME":"ERS-1","OBJECT_ID":"1991-050A","EPOCH":"2026-04-13T00:51:02.179296","MEAN_MOTION":14.39476437,"ECCENTRICITY":0.00331433,"INCLINATION":98.7849,"RA_OF_ASC_NODE":122.1297,"ARG_OF_PERICENTER":100.2168,"MEAN_ANOMALY":260.2759,"EPHEMERIS_TYPE":0,"CLASSIFICATION_TYPE":"U","NORAD_CAT_ID":21574,"ELEMENT_SET_NO":999,"REV_AT_EPOCH":82067,"BSTAR":8.0365912e-5,"MEAN_MOTION_DOT":2.06e-6,"MEAN_MOTION_DDOT":0},{"OBJECT_NAME":"ARIANE 40 R/B","OBJECT_ID":"1991-050F","EPOCH":"2026-04-13T03:26:30.031296","MEAN_MOTION":14.42919329,"ECCENTRICITY":0.00025448,"INCLINATION":98.1943,"RA_OF_ASC_NODE":154.0746,"ARG_OF_PERICENTER":354.8258,"MEAN_ANOMALY":5.2906,"EPHEMERIS_TYPE":0,"CLASSIFICATION_TYPE":"U","NORAD_CAT_ID":21610,"ELEMENT_SET_NO":999,"REV_AT_EPOCH":82396,"BSTAR":6.5311857e-5,"MEAN_MOTION_DOT":1.77e-6,"MEAN_MOTION_DDOT":0},{"OBJECT_NAME":"INTERCOSMOS 25","OBJECT_ID":"1991-086A","EPOCH":"2026-04-13T05:49:43.275936","MEAN_MOTION":12.12112195,"ECCENTRICITY":0.14860071,"INCLINATION":82.5993,"RA_OF_ASC_NODE":289.1129,"ARG_OF_PERICENTER":42.4749,"MEAN_ANOMALY":328.2145,"EPHEMERIS_TYPE":0,"CLASSIFICATION_TYPE":"U","NORAD_CAT_ID":21819,"ELEMENT_SET_NO":999,"REV_AT_EPOCH":50087,"BSTAR":0.00014611084,"MEAN_MOTION_DOT":7.74e-6,"MEAN_MOTION_DDOT":0},{"OBJECT_NAME":"SL-8 R/B","OBJECT_ID":"1992-008B","EPOCH":"2026-04-13T03:20:58.569792","MEAN_MOTION":13.75970147,"ECCENTRICITY":0.00353948,"INCLINATION":82.9259,"RA_OF_ASC_NODE":242.1472,"ARG_OF_PERICENTER":40.3136,"MEAN_ANOMALY":132.7433,"EPHEMERIS_TYPE":0,"CLASSIFICATION_TYPE":"U","NORAD_CAT_ID":21876,"ELEMENT_SET_NO":999,"REV_AT_EPOCH":71415,"BSTAR":6.930103e-6,"MEAN_MOTION_DOT":2.2e-7,"MEAN_MOTION_DDOT":0},{"OBJECT_NAME":"SL-8 R/B","OBJECT_ID":"1992-020B","EPOCH":"2026-04-13T07:20:26.557152","MEAN_MOTION":13.75550092,"ECCENTRICITY":0.00285879,"INCLINATION":82.9278,"RA_OF_ASC_NODE":128.0545,"ARG_OF_PERICENTER":198.4596,"MEAN_ANOMALY":172.1204,"EPHEMERIS_TYPE":0,"CLASSIFICATION_TYPE":"U","NORAD_CAT_ID":21938,"ELEMENT_SET_NO":999,"REV_AT_EPOCH":70589,"BSTAR":-3.6556578e-5,"MEAN_MOTION_DOT":-2.0e-7,"MEAN_MOTION_DDOT":0},{"OBJECT_NAME":"USA 81","OBJECT_ID":"1992-023A","EPOCH":"2026-04-13T07:23:39.382944","MEAN_MOTION":14.32379534,"ECCENTRICITY":0.00012714,"INCLINATION":85.0033,"RA_OF_ASC_NODE":111.4582,"ARG_OF_PERICENTER":80.969,"MEAN_ANOMALY":279.1646,"EPHEMERIS_TYPE":0,"CLASSIFICATION_TYPE":"U","NORAD_CAT_ID":21949,"ELEMENT_SET_NO":999,"REV_AT_EPOCH":9974,"BSTAR":4.8683696e-5,"MEAN_MOTION_DOT":1.51e-6,"MEAN_MOTION_DDOT":0},{"OBJECT_NAME":"COSMOS 2219","OBJECT_ID":"1992-076A","EPOCH":"2026-04-13T06:04:54.989472","MEAN_MOTION":14.1408844,"ECCENTRICITY":0.00174136,"INCLINATION":71.059,"RA_OF_ASC_NODE":305.817,"ARG_OF_PERICENTER":153.2212,"MEAN_ANOMALY":206.9813,"EPHEMERIS_TYPE":0,"CLASSIFICATION_TYPE":"U","NORAD_CAT_ID":22219,"ELEMENT_SET_NO":999,"REV_AT_EPOCH":72326,"BSTAR":6.3875286e-5,"MEAN_MOTION_DOT":7.5e-7,"MEAN_MOTION_DDOT":0},{"OBJECT_NAME":"SL-16 R/B","OBJECT_ID":"1992-076B","EPOCH":"2026-04-13T06:44:10.247424","MEAN_MOTION":14.16865296,"ECCENTRICITY":0.00113906,"INCLINATION":70.9976,"RA_OF_ASC_NODE":115.51,"ARG_OF_PERICENTER":33.7968,"MEAN_ANOMALY":337.8551,"EPHEMERIS_TYPE":0,"CLASSIFICATION_TYPE":"U","NORAD_CAT_ID":22220,"ELEMENT_SET_NO":999,"REV_AT_EPOCH":72673,"BSTAR":0.00015545569,"MEAN_MOTION_DOT":2.64e-6,"MEAN_MOTION_DDOT":0},{"OBJECT_NAME":"COSMOS 2221","OBJECT_ID":"1992-080A","EPOCH":"2026-04-13T03:28:10.011648","MEAN_MOTION":14.9635487,"ECCENTRICITY":0.00156358,"INCLINATION":82.5026,"RA_OF_ASC_NODE":246.0669,"ARG_OF_PERICENTER":78.6084,"MEAN_ANOMALY":281.6893,"EPHEMERIS_TYPE":0,"CLASSIFICATION_TYPE":"U","NORAD_CAT_ID":22236,"ELEMENT_SET_NO":999,"REV_AT_EPOCH":78594,"BSTAR":0.00012462857,"MEAN_MOTION_DOT":1.439e-5,"MEAN_MOTION_DDOT":0},{"OBJECT_NAME":"SL-16 R/B","OBJECT_ID":"1992-093B","EPOCH":"2026-04-13T05:26:03.954624","MEAN_MOTION":14.15453882,"ECCENTRICITY":0.0006508,"INCLINATION":71.0203,"RA_OF_ASC_NODE":291.7645,"ARG_OF_PERICENTER":259.4205,"MEAN_ANOMALY":100.6185,"EPHEMERIS_TYPE":0,"CLASSIFICATION_TYPE":"U","NORAD_CAT_ID":22285,"ELEMENT_SET_NO":999,"REV_AT_EPOCH":71804,"BSTAR":-6.9722363e-5,"MEAN_MOTION_DOT":-1.84e-6,"MEAN_MOTION_DDOT":0},{"OBJECT_NAME":"COSMOS 2228","OBJECT_ID":"1992-094A","EPOCH":"2026-04-13T06:30:50.812416","MEAN_MOTION":14.97375262,"ECCENTRICITY":0.00180006,"INCLINATION":82.5205,"RA_OF_ASC_NODE":204.2025,"ARG_OF_PERICENTER":181.1867,"MEAN_ANOMALY":178.9316,"EPHEMERIS_TYPE":0,"CLASSIFICATION_TYPE":"U","NORAD_CAT_ID":22286,"ELEMENT_SET_NO":999,"REV_AT_EPOCH":78123,"BSTAR":0.00012309235,"MEAN_MOTION_DOT":1.461e-5,"MEAN_MOTION_DDOT":0},{"OBJECT_NAME":"SL-16 R/B","OBJECT_ID":"1993-016B","EPOCH":"2026-04-13T01:23:58.000416","MEAN_MOTION":14.15313627,"ECCENTRICITY":0.00126294,"INCLINATION":71.0064,"RA_OF_ASC_NODE":143.0007,"ARG_OF_PERICENTER":270.8157,"MEAN_ANOMALY":89.1519,"EPHEMERIS_TYPE":0,"CLASSIFICATION_TYPE":"U","NORAD_CAT_ID":22566,"ELEMENT_SET_NO":999,"REV_AT_EPOCH":70703,"BSTAR":7.1364529e-5,"MEAN_MOTION_DOT":9.1e-7,"MEAN_MOTION_DDOT":0},{"OBJECT_NAME":"COSMOS 2242","OBJECT_ID":"1993-024A","EPOCH":"2026-04-13T01:38:10.014144","MEAN_MOTION":14.96708278,"ECCENTRICITY":0.00161805,"INCLINATION":82.5189,"RA_OF_ASC_NODE":233.8258,"ARG_OF_PERICENTER":184.9497,"MEAN_ANOMALY":175.1568,"EPHEMERIS_TYPE":0,"CLASSIFICATION_TYPE":"U","NORAD_CAT_ID":22626,"ELEMENT_SET_NO":999,"REV_AT_EPOCH":78553,"BSTAR":0.00012535226,"MEAN_MOTION_DOT":1.461e-5,"MEAN_MOTION_DDOT":0}]
