{"fetched_at":"2026-04-14T06:02:07Z","count":5195,"tles":[{"name":"OKEAN-3","line1":"1 21397U 91039A   26102.98832709  .00001441  00000+0  99414-4 0  9991","line2":"2 21397  82.5146 303.6037 0013628 209.0368 151.0102 15.05008495870192","category":"Other"},{"name":"SL-16 R/B","line1":"1 22285U 92093B   26103.22643466 -.00000184  00000+0 -69722-4 0  9991","line2":"2 22285  71.0203 291.7645 0006508 259.4205 100.6185 14.15453882718046","category":"Other"},{"name":"SL-8 R/B","line1":"1 21938U 92020B   26103.30586293 -.00000020  00000+0 -36557-4 0  9997","line2":"2 21938  82.9278 128.0545 0028587 198.4596 172.1204 13.75550092705891","category":"Other"},{"name":"COSMOS 2151","line1":"1 21422U 91042A   26103.23408001  .00001167  00000+0  90997-4 0  9999","line2":"2 21422  82.4972  50.3462 0010973 308.4663  51.5576 15.00261440868379","category":"Other"},{"name":"COSMOS 2228","line1":"1 22286U 92094A   26103.27142144  .00001461  00000+0  12309-3 0  9990","line2":"2 22286  82.5205 204.2025 0018000 181.1867 178.9316 14.97375262781232","category":"Other"},{"name":"USA 81","line1":"1 21949U 92023A   26103.30809471  .00000151  00000+0  48684-4 0  9995","line2":"2 21949  85.0033 111.4582 0001271  80.9690 279.1646 14.32379534 99746","category":"Military"},{"name":"SL-14 R/B","line1":"1 21423U 91042B   26103.19551275  .00000249  00000+0  28475-4 0  9999","line2":"2 21423  82.4958 187.8356 0018327 125.1154 235.1782 14.81864185858182","category":"Other"},{"name":"SL-8 R/B","line1":"1 21088U 91006B   26103.04610845  .00000118  00000+0  10351-3 0  9997","line2":"2 21088  82.9417 144.4993 0021084 300.7793  81.1218 13.77500637768809","category":"Other"},{"name":"SL-16 R/B","line1":"1 22566U 93016B   26103.05831019  .00000091  00000+0  71365-4 0  9994","line2":"2 22566  71.0064 143.0007 0012629 270.8157  89.1519 14.15313627707039","category":"Other"},{"name":"COSMOS 2219","line1":"1 22219U 92076A   26103.25341423  .00000075  00000+0  63875-4 0  9990","line2":"2 22219  71.0590 305.8170 0017413 153.2212 206.9813 14.14088440723269","category":"Other"},{"name":"INTERCOSMOS 25","line1":"1 21819U 91086A   26103.24286199  .00000774  00000+0  14611-3 0  9991","line2":"2 21819  82.5993 289.1129 1486007  42.4749 328.2145 12.12112195500877","category":"Other"},{"name":"ERS-1","line1":"1 21574U 91050A   26103.03544189  .00000206  00000+0  80366-4 0  9994","line2":"2 21574  98.7849 122.1297 0033143 100.2168 260.2759 14.39476437820674","category":"Other"},{"name":"COSMOS 2242","line1":"1 22626U 93024A   26103.06817146  .00001461  00000+0  12535-3 0  9991","line2":"2 22626  82.5189 233.8258 0016180 184.9497 175.1568 14.96708278785535","category":"Other"},{"name":"SL-16 R/B","line1":"1 22220U 92076B   26103.28067416  .00000264  00000+0  15546-3 0  9993","line2":"2 22220  70.9976 115.5100 0011390  33.7968 337.8551 14.16865296726736","category":"Other"},{"name":"SL-8 R/B","line1":"1 21876U 92008B   26103.13956678  .00000022  00000+0  69301-5 0  9997","line2":"2 21876  82.9259 242.1472 0035394  40.3136 132.7433 13.75970147714159","category":"Other"},{"name":"ARIANE 40 R/B","line1":"1 21610U 91050F   26103.14340314  .00000177  00000+0  65312-4 0  9992","line2":"2 21610  98.1943 154.0746 0002544 354.8258   5.2906 14.42919329823967","category":"Other"},{"name":"COSMOS 2221","line1":"1 22236U 92080A   26103.14456032  .00001439  00000+0  12463-3 0  9996","line2":"2 22236  82.5026 246.0669 0015635  78.6084 281.6893 14.96354870785943","category":"Other"}]}